*******************************************************************************
JPL/HORIZONS          88611 Teharonhiawako (2001 QT297)    2024-May-13 03:32:36
Rec #:   88611 (+COV) Soln.date: 2021-Apr-13_14:31:09    # obs: 195 (2000-2020)
 
IAU76/J2000 helio. ecliptic osc. elements (au, days, deg., period=Julian yrs):
 
  EPOCH=  2457243.5 ! 2015-Aug-09.00 (TDB)         Residual RMS= .19745
   EC= .0314442558399213   QR= 42.46448988864644   TP= 2410363.3108225046
   OM= 304.7984136155625   W=  235.2431455364049   IN= 2.584385431545264
   A= 43.84310365684858    MA= 159.1627718926726   ADIST= 45.22171742505071
   PER= 290.30876          N= .003395097           ANGMOM= .113845869
   DAN= 44.59925           DDN= 43.02842           L= 180.0142453
   B= -2.123042            MOID= 41.46870041       TP= 1887-Apr-01.8108225046
 
Asteroid physical parameters (km, seconds, rotational period in hours):
   GM= n.a.                RAD= n.a.               ROTPER= n.a.
   H= 5.98                 G= .150                 B-V= n.a.
                           ALBEDO= n.a.            STYP= n.a.

ASTEROID comments: 
1: soln ref.= JPL#18, OCC=2
2: source=ORB
*******************************************************************************


*******************************************************************************
Ephemeris / WWW_USER Mon May 13 03:32:36 2024 Pasadena, USA      / Horizons
*******************************************************************************
Target body name: 88611 Teharonhiawako (2001 QT297) {source: JPL#18}
Center body name: Sun (10)                        {source: DE441}
Center-site name: BODY CENTER
*******************************************************************************
Start time      : A.D. 1900-Jan-01 00:00:00.0000 TDB
Stop  time      : A.D. 2300-Jan-01 00:00:00.0000 TDB
Step-size       : 1 calendar years
*******************************************************************************
Center geodetic : 0.0, 0.0, 0.0                   {E-lon(deg),Lat(deg),Alt(km)}
Center cylindric: 0.0, 0.0, 0.0                   {E-lon(deg),Dxy(km),Dz(km)}
Center radii    : 695700.0, 695700.0, 695700.0 km {Equator_a, b, pole_c}
Small perturbers: Yes                             {source: SB441-N16}
Output units    : AU-D
Calendar mode   : Mixed Julian/Gregorian
Output type     : GEOMETRIC cartesian states
Output format   : 1x (position w/uncertainties: XYZ)
Reference frame : Ecliptic of J2000.0
*******************************************************************************
Initial IAU76/J2000 heliocentric ecliptic osculating elements (au, days, deg.):
  EPOCH=  2457243.5 ! 2015-Aug-09.00 (TDB)         Residual RMS= .19745        
   EC= .0314442558399213   QR= 42.46448988864644   TP= 2410363.3108225046      
   OM= 304.7984136155625   W=  235.2431455364049   IN= 2.584385431545264       
  Equivalent ICRF heliocentric cartesian coordinates (au, au/d):
   X= 4.251018010893277E+01  Y=-1.434998297137766E+01  Z=-4.928830693155996E+00
  VX= 8.685211091731259E-04 VY= 2.133999926480043E-03 VZ= 1.026725149431319E-03
Asteroid physical parameters (km, seconds, rotational period in hours):        
   GM= n.a.                RAD= n.a.               ROTPER= n.a.                
   H= 5.98                 G= .150                 B-V= n.a.                   
                           ALBEDO= n.a.            STYP= n.a.                  
*******************************************************************************
            JDTDB             Calendar Date (TDB),                      X,                      Y,                      Z,             X_s,             Y_s,             Z_s,
*****************************************************************************************************************************************************************************
$$SOE
2542855.500000000, A.D. 2250-Jan-01 00:00:00.0000,  1.192418397485909E+00, -4.392528856038294E+01, -1.081103612487350E+00,  1.09108854E-02,  9.97816318E-04,  4.30512526E-04,
2543220.500000000, A.D. 2251-Jan-01 00:00:00.0000,  2.137564069186501E+00, -4.391613189777728E+01, -1.045752762360283E+00,  1.09076641E-02,  1.18709483E-03,  4.35842040E-04,
2543585.500000000, A.D. 2252-Jan-01 00:00:00.0000,  3.081935863929114E+00, -4.388787171742268E+01, -1.009918400233054E+00,  1.08993546E-02,  1.38510907E-03,  4.40991472E-04,
2543951.500000000, A.D. 2253-Jan-01 00:00:00.0000,  4.028276572370959E+00, -4.384007930177035E+01, -9.735319607257961E-01,  1.08859114E-02,  1.58914140E-03,  4.45970811E-04,
2544316.500000000, A.D. 2254-Jan-01 00:00:00.0000,  4.971334447576209E+00, -4.377252982769937E+01, -9.368198295426214E-01,  1.08674096E-02,  1.79614396E-03,  4.50749628E-04,
2544681.500000000, A.D. 2255-Jan-01 00:00:00.0000,  5.913328981578568E+00, -4.368459728681181E+01, -8.997049115146442E-01,  1.08438245E-02,  2.00545509E-03,  4.55338710E-04,
2545046.500000000, A.D. 2256-Jan-01 00:00:00.0000,  6.853627222214990E+00, -4.357578708370982E+01, -8.622021381466229E-01,  1.08151643E-02,  2.21626109E-03,  4.59735127E-04,
2545412.500000000, A.D. 2257-Jan-01 00:00:00.0000,  7.793939056197453E+00, -4.344535305343410E+01, -8.242174921837015E-01,  1.07813411E-02,  2.42856394E-03,  4.63947335E-04,
2545777.500000000, A.D. 2258-Jan-01 00:00:00.0000,  8.728066221258235E+00, -4.329389076341868E+01, -7.859629932714755E-01,  1.07425542E-02,  2.64076858E-03,  4.67949683E-04,
2546142.500000000, A.D. 2259-Jan-01 00:00:00.0000,  9.657428444775654E+00, -4.312129225249481E+01, -7.473360751785766E-01,  1.06987362E-02,  2.85311297E-03,  4.71751483E-04,
2546507.500000000, A.D. 2260-Jan-01 00:00:00.0000,  1.058101070773345E+01, -4.292820038805480E+01, -7.083393965325769E-01,  1.06499084E-02,  3.06531720E-03,  4.75350407E-04,
2546873.500000000, A.D. 2261-Jan-01 00:00:00.0000,  1.150066418651074E+01, -4.271496369063304E+01, -6.688735207376294E-01,  1.05959408E-02,  3.27772290E-03,  4.78753281E-04,
2547238.500000000, A.D. 2262-Jan-01 00:00:00.0000,  1.241125081182890E+01, -4.248368173233715E+01, -6.291752477801037E-01,  1.05371555E-02,  3.48896085E-03,  4.81939453E-04,
2547603.500000000, A.D. 2263-Jan-01 00:00:00.0000,  1.331556859713023E+01, -4.223443120124347E+01, -5.891689103647615E-01,  1.04734411E-02,  3.69942610E-03,  4.84916595E-04,
2547968.500000000, A.D. 2264-Jan-01 00:00:00.0000,  1.421396717380019E+01, -4.196737959269635E+01, -5.488889416744958E-01,  1.04048300E-02,  3.90894939E-03,  4.87682947E-04,
2548334.500000000, A.D. 2265-Jan-01 00:00:00.0000,  1.510910421918500E+01, -4.168154634308111E+01, -5.082580835577770E-01,  1.03311493E-02,  4.11794356E-03,  4.90243603E-04,
2548699.500000000, A.D. 2266-Jan-01 00:00:00.0000,  1.599603223458558E+01, -4.137813991781221E+01, -4.675268550543803E-01,  1.02528399E-02,  4.32511963E-03,  4.92583097E-04,
2549064.500000000, A.D. 2267-Jan-01 00:00:00.0000,  1.687688564913229E+01, -4.105598482432170E+01, -4.266073184475025E-01,  1.01697476E-02,  4.53091138E-03,  4.94707387E-04,
2549429.500000000, A.D. 2268-Jan-01 00:00:00.0000,  1.775110361459116E+01, -4.071471628724157E+01, -3.855174324980594E-01,  1.00819156E-02,  4.73518646E-03,  4.96615270E-04,
2549795.500000000, A.D. 2269-Jan-01 00:00:00.0000,  1.862024716908709E+01, -4.035308920850805E+01, -3.441554412277457E-01,  9.98912922E-03,  4.93837089E-03,  4.98310010E-04,
2550160.500000000, A.D. 2270-Jan-01 00:00:00.0000,  1.947858499835138E+01, -3.997307040209482E+01, -3.027541978893511E-01,  9.89194291E-03,  5.13923251E-03,  4.99781410E-04,
2550525.500000000, A.D. 2271-Jan-01 00:00:00.0000,  2.032746305242573E+01, -3.957406232027211E+01, -2.612052162889555E-01,  9.79015935E-03,  5.33821191E-03,  5.01033609E-04,
2550890.500000000, A.D. 2272-Jan-01 00:00:00.0000,  2.116597298475711E+01, -3.915681656451108E+01, -2.195132300517816E-01,  9.68383097E-03,  5.53519609E-03,  5.02065957E-04,
2551256.500000000, A.D. 2273-Jan-01 00:00:00.0000,  2.199589672193036E+01, -3.872113034761881E+01, -1.775773800171875E-01,  9.57270281E-03,  5.73060612E-03,  5.02879853E-04,
2551621.500000000, A.D. 2274-Jan-01 00:00:00.0000,  2.281271912040818E+01, -3.827035541082720E+01, -1.356515646096911E-01,  9.45743893E-03,  5.92326705E-03,  5.03470448E-04,
2551986.500000000, A.D. 2275-Jan-01 00:00:00.0000,  2.361908734327896E+01, -3.780390440449791E+01, -9.365463424304074E-02,  9.33780020E-03,  6.11361198E-03,  5.03839985E-04,
2552351.500000000, A.D. 2276-Jan-01 00:00:00.0000,  2.441541572566392E+01, -3.732193565880018E+01, -5.162347046313259E-02,  9.21384684E-03,  6.30154027E-03,  5.03988305E-04,
2552717.500000000, A.D. 2277-Jan-01 00:00:00.0000,  2.520405601059921E+01, -3.682288849667506E+01, -9.475573173681693E-03,  9.08528397E-03,  6.48745871E-03,  5.03914871E-04,
2553082.500000000, A.D. 2278-Jan-01 00:00:00.0000,  2.598064934719349E+01, -3.630914390390241E+01,  3.253096984972545E-02,  8.95287838E-03,  6.67025613E-03,  5.03620174E-04,
2553447.500000000, A.D. 2279-Jan-01 00:00:00.0000,  2.674703933070484E+01, -3.577899689500386E+01,  7.448970323382148E-02,  8.81635061E-03,  6.85035145E-03,  5.03104527E-04,
2553812.500000000, A.D. 2280-Jan-01 00:00:00.0000,  2.750263274172710E+01, -3.523214322097233E+01,  1.163860946395509E-01,  8.67576835E-03,  7.02765436E-03,  5.02368248E-04,
2554178.500000000, A.D. 2281-Jan-01 00:00:00.0000,  2.824864650075243E+01, -3.466685873314588E+01,  1.583251486815676E-01,  8.53079913E-03,  7.20255061E-03,  5.01408840E-04,
2554543.500000000, A.D. 2282-Jan-01 00:00:00.0000,  2.898001527470311E+01, -3.408636216686887E+01,  2.000737667894756E-01,  8.38230542E-03,  7.37399869E-03,  5.00232075E-04,
2554908.500000000, A.D. 2283-Jan-01 00:00:00.0000,  2.969776018462763E+01, -3.348961102839833E+01,  2.417461053640848E-01,  8.22996787E-03,  7.54239760E-03,  4.98836270E-04,
2555273.500000000, A.D. 2284-Jan-01 00:00:00.0000,  3.040106509263730E+01, -3.287750214156427E+01,  2.833379654943469E-01,  8.07385936E-03,  7.70766713E-03,  4.97222172E-04,
